      2.10          N: GNSS NAV DATA                        RINEX VERSION / TYPE
fic2rin                                 07/09/2021 00:17:30 PGM / RUN BY / DATE
                                                            END OF HEADER
10 21  7  8 11 59 44.0-1.578819938004e-04-7.617018127348e-12 0.000000000000e+00
    6.000000000000e+00-6.781250000000e+01 3.780871774200e-09-2.625713005223e+00
   -3.531575202942e-06 6.706712651066e-03 1.108087599277e-05 5.153680295944e+03
    3.887840000000e+05-6.891787052155e-08 3.128367777601e+00-4.097819328308e-08
    9.701584730745e-01 1.691875000000e+02-2.572700574231e+00-7.426023609405e-09
    3.571577341961e-10 1.000000000000e+00 2.165000000000e+03 0.000000000000e+00
    2.400000000000e+00 0.000000000000e+00 2.328306436539e-09 6.000000000000e+00
    3.816000000000e+05 4.000000000000e+00
30 21  7  8 11 59 44.0-4.483368247747e-04-4.433786671143e-12 0.000000000000e+00
    9.000000000000e+00-1.646875000000e+01 5.204502502705e-09-1.378916492218e+00
   -1.020729541779e-06 5.346867721528e-03 6.793066859245e-06 5.153674274445e+03
    3.887840000000e+05 5.774199962616e-08-1.033418396516e+00-7.264316082001e-08
    9.364105373261e-01 2.309062500000e+02-2.747686649846e+00-8.216770832915e-09
   -3.475144753728e-10 1.000000000000e+00 2.165000000000e+03 0.000000000000e+00
    2.400000000000e+00 0.000000000000e+00 3.725290298462e-09 9.000000000000e+00
    3.816000000000e+05 4.000000000000e+00
 1 21  7  8 12  0  0.0 6.345873698592e-04-1.159605744760e-11 0.000000000000e+00
    9.000000000000e+01-1.111250000000e+02 4.107313943255e-09-6.313629018620e-01
   -5.761161446571e-06 1.105522457510e-02 3.375113010406e-06 5.153681386948e+03
    3.888000000000e+05 3.166496753693e-08 2.094221572026e+00 2.197921276093e-07
    9.847054056869e-01 3.246250000000e+02 8.697330148882e-01-8.163197172786e-09
   -4.053740283126e-10 1.000000000000e+00 2.165000000000e+03 0.000000000000e+00
    2.400000000000e+00 0.000000000000e+00 5.122274160385e-09 9.000000000000e+01
    3.816000000000e+05 4.000000000000e+00
 3 21  7  8 12  0  0.0-2.144048921764e-04-1.125499693444e-11 0.000000000000e+00
    1.200000000000e+01-8.075000000000e+01 3.851589005571e-09-1.664390250135e+00
   -4.159286618233e-06 3.692443482578e-03 1.056492328644e-05 5.153571100235e+03
    3.888000000000e+05 9.126961231232e-08 3.131231100344e+00-4.842877388000e-08
    9.702899967244e-01 1.826250000000e+02 8.804137739333e-01-7.500312418118e-09
    2.435815747217e-10 1.000000000000e+00 2.165000000000e+03 0.000000000000e+00
    2.400000000000e+00 0.000000000000e+00 1.862645149231e-09 1.200000000000e+01
    3.816000000000e+05 4.000000000000e+00
 2 21  7  8 12  0  0.0-6.181094795465e-04-2.728484105319e-12 0.000000000000e+00
    1.100000000000e+02-8.912500000000e+01 4.630192866118e-09-3.441075013672e-01
   -4.682689905167e-06 2.020222751889e-02 3.281980752945e-06 5.153712228775e+03
    3.888000000000e+05-2.644956111908e-07 2.009511628340e+00 6.519258022308e-08
    9.632739893710e-01 3.207812500000e+02-1.508150480773e+00-8.646788744887e-09
   -2.300095808223e-10 1.000000000000e+00 2.165000000000e+03 0.000000000000e+00
    3.400000000000e+00 0.000000000000e+00-1.769512891769e-08 1.100000000000e+02
    3.816000000000e+05 4.000000000000e+00
 5 21  7  8 12  0  0.0-4.728417843580e-05-1.136868377216e-12 0.000000000000e+00
    7.500000000000e+01-7.531250000000e+01 4.209461055235e-09 2.006991940664e+00
   -4.077330231667e-06 6.189985550009e-03 1.047179102898e-05 5.153913185120e+03
    3.888000000000e+05-3.539025783539e-08 3.093845174064e+00-1.247972249985e-07
    9.572510459198e-01 1.794687500000e+02 9.248304888906e-01-7.753537251663e-09
    1.900079145923e-10 1.000000000000e+00 2.165000000000e+03 0.000000000000e+00
    2.400000000000e+00 0.000000000000e+00-1.117587089539e-08 7.500000000000e+01
    3.816000000000e+05 4.000000000000e+00
12 21  7  8 12  0  0.0-6.574019789696e-05-5.229594535194e-12 0.000000000000e+00
    1.700000000000e+01 1.036250000000e+02 4.055526071797e-09-1.980500970969e+00
    5.437061190605e-06 8.312124758959e-03 9.266659617424e-06 5.153721357346e+03
    3.888000000000e+05 1.415610313416e-07 6.064279957030e-02 3.539025783539e-08
    9.734878800548e-01 2.073125000000e+02 1.228366529139e+00-7.573886911362e-09
    3.678724662220e-11 1.000000000000e+00 2.165000000000e+03 0.000000000000e+00
    2.400000000000e+00 0.000000000000e+00-1.257285475731e-08 1.700000000000e+01
    3.816000000000e+05 4.000000000000e+00
 8 21  7  8 12  0  0.0-2.801790833473e-05-1.364242052659e-12 0.000000000000e+00
    4.900000000000e+01 8.846875000000e+01 4.690552523197e-09 1.652364548576e+00
    4.777684807777e-06 6.349030882120e-03 1.577660441399e-06 5.153623142242e+03
    3.888000000000e+05 5.960464477539e-08 1.018127170683e+00 1.154839992523e-07
    9.669389502599e-01 3.511875000000e+02 5.995200965327e-02-8.397849804153e-09
    8.786080261224e-11 1.000000000000e+00 2.165000000000e+03 0.000000000000e+00
    2.400000000000e+00 0.000000000000e+00 5.122274160385e-09 4.900000000000e+01
    3.816000000000e+05 4.000000000000e+00
 6 21  7  8 12  0  0.0 3.717001527548e-05 5.343281372916e-12 0.000000000000e+00
    7.200000000000e+01-1.061250000000e+02 4.020167456111e-09-4.167624675782e-01
   -5.481764674187e-06 2.093330607750e-03 3.270804882050e-06 5.153796550751e+03
    3.888000000000e+05-2.235174179077e-08 2.085968943928e+00-2.421438694000e-08
    9.841447701285e-01 3.305312500000e+02-9.737942663028e-01-7.986404094359e-09
   -3.175132257003e-10 1.000000000000e+00 2.165000000000e+03 0.000000000000e+00
    2.400000000000e+00 0.000000000000e+00 4.190951585770e-09 7.200000000000e+01
    3.816000000000e+05 4.000000000000e+00
13 21  7  8 12  0  0.0 1.549823209643e-04 5.002220859751e-12 0.000000000000e+00
    4.000000000000e+01 1.309375000000e+01 4.604834666990e-09 1.048709749622e+00
    5.979090929031e-07 5.086594028398e-03 5.705282092094e-06 5.153674556732e+03
    3.888000000000e+05-4.470348358154e-08-1.973430234388e+00 4.284083843231e-08
    9.678273131152e-01 2.726562500000e+02 9.555670545862e-01-8.049978171046e-09
    2.964409193827e-10 1.000000000000e+00 2.165000000000e+03 0.000000000000e+00
    2.400000000000e+00 0.000000000000e+00-1.117587089539e-08 4.000000000000e+01
    3.816000000000e+05 4.000000000000e+00
 7 21  7  8 12  0  0.0 1.974548213184e-04 9.094947017729e-12 0.000000000000e+00
    9.200000000000e+01-7.562500000000e+00 4.898061166765e-09-1.223821277777e+00
   -2.048909664154e-07 1.516489160713e-02 6.763264536858e-06 5.153742650986e+03
    3.888000000000e+05 3.315508365631e-07-1.049953673253e+00 9.685754776001e-08
    9.511940589020e-01 2.379062500000e+02-2.319968924201e+00-8.030334495665e-09
   -3.464430021702e-10 1.000000000000e+00 2.165000000000e+03 0.000000000000e+00
    2.400000000000e+00 0.000000000000e+00-1.117587089539e-08 9.200000000000e+01
    3.816000000000e+05 4.000000000000e+00
 4 21  7  8 12  0  0.0-2.019028179348e-04-7.958078640513e-13 0.000000000000e+00
    1.060000000000e+02 1.053125000000e+01 4.661622746727e-09 1.017742415914e+00
    5.997717380524e-07 1.285007921979e-03 6.124377250671e-06 5.153714694977e+03
    3.888000000000e+05-4.284083843231e-08-2.071589667579e+00 7.823109626770e-08
    9.602818654685e-01 2.614062500000e+02-2.939751755683e+00-7.917115493925e-09
    4.146601294017e-10 1.000000000000e+00 2.165000000000e+03 0.000000000000e+00
    2.400000000000e+00 0.000000000000e+00-4.190951585770e-09 6.180000000000e+02
    3.816000000000e+05 4.000000000000e+00
29 21  7  8 12  0  0.0-3.768317401409e-04-6.139089236967e-12 0.000000000000e+00
    1.600000000000e+01 6.134375000000e+01 4.235890727566e-09 1.685936669367e+00
    3.121793270111e-06 1.967000309378e-03 9.983777999878e-07 5.153613088608e+03
    3.888000000000e+05 9.313225746155e-09 1.109292799229e+00-7.450580596924e-08
    9.836036835444e-01 3.674375000000e+02 2.220087188777e+00-8.124624137493e-09
    3.714440435639e-11 1.000000000000e+00 2.165000000000e+03 0.000000000000e+00
    2.400000000000e+00 0.000000000000e+00-9.778887033463e-09 1.600000000000e+01
    3.816000000000e+05 4.000000000000e+00
27 21  7  8 12  0  0.0-1.596203073859e-04-6.025402399246e-12 0.000000000000e+00
    2.300000000000e+01 8.468750000000e+01 4.534474593353e-09 1.548600079352e+00
    4.423782229424e-06 9.429045137949e-03 1.726672053337e-06 5.153686836243e+03
    3.888000000000e+05-1.713633537292e-07 1.035727346453e+00 1.676380634308e-07
    9.755264666387e-01 3.559062500000e+02 6.364648184230e-01-8.352490771910e-09
    1.150047904111e-10 1.000000000000e+00 2.165000000000e+03 0.000000000000e+00
    2.400000000000e+00 0.000000000000e+00 1.862645149231e-09 2.300000000000e+01
    3.816000000000e+05 4.000000000000e+00
26 21  7  8 12  0  0.0 1.080436632037e-04 4.661160346586e-12 0.000000000000e+00
    3.100000000000e+01 1.067187500000e+02 4.674480425158e-09-2.880281215777e+00
    5.440786480904e-06 5.911236046813e-03 1.012347638607e-05 5.153595800400e+03
    3.888000000000e+05-8.568167686462e-08-5.612779257642e-02-9.499490261078e-08
    9.417244292539e-01 1.773437500000e+02 3.035890885841e-01-7.870327830745e-09
   -1.200049986899e-10 1.000000000000e+00 2.165000000000e+03 0.000000000000e+00
    2.400000000000e+00 0.000000000000e+00 6.984919309616e-09 3.100000000000e+01
    3.816000000000e+05 4.000000000000e+00
20 21  7  8 12  0  0.0 5.203955806792e-04-3.410605131648e-13 0.000000000000e+00
    1.900000000000e+01-8.040625000000e+01 4.670194532348e-09 3.484762677553e-01
   -4.274770617485e-06 6.079218699597e-03 9.480863809586e-06 5.151759918213e+03
    3.888000000000e+05 1.601874828339e-07 2.984001610205e+00-5.587935447693e-09
    9.391852555100e-01 1.877812500000e+02 3.041058523997e+00-8.117480982809e-09
    1.346484657919e-10 1.000000000000e+00 2.165000000000e+03 0.000000000000e+00
    2.400000000000e+00 0.000000000000e+00-8.381903171539e-09 1.900000000000e+01
    3.816000000000e+05 4.000000000000e+00
